ONEWEB-0429             
1 50500U 21132AH  26091.17226875 -.00000120  00000+0 -33594-3 0  9996
2 50500  87.9238 350.7690 0001875  80.0679 280.0664 13.18686755211437
ONEWEB-0430             
1 50501U 21132AJ  26091.16073141  .00000045  00000+0  80819-4 0  9999
2 50501  87.9235 350.7693 0001926  74.0091 286.1253 13.18686286211470
ONEWEB-0432             
1 50502U 21132AK  26091.19462394  .00000115  00000+0  25962-3 0  9990
2 50502  87.9245 350.7319 0001593  54.7749 305.3532 13.18647053211431
ONEWEB-0440             
1 50503U 21132AL  26091.18051752 -.00000194  00000+0 -52427-3 0  9997
2 50503  87.9246 350.7556 0001901  90.6815 269.4535 13.18686343211429
ONEWEB-0450             
1 50504U 21132AM  26091.17405697 -.00000131  00000+0 -36423-3 0  9997
2 50504  87.9234 350.7700 0002027  78.5367 281.5993 13.18685863211457
ONEWEB-0410             
1 51622U 22012A   26091.06612211 -.00000025  00000+0 -98333-4 0  9998
2 51622  87.9193  21.1648 0000466  67.1026 293.0155 13.17651333203547
ONEWEB-0411             
1 51623U 22012B   26091.12100564  .00000252  00000+0  68450-3 0  9995
2 51623  87.8815  51.5986 0002322  71.5276 288.6104 13.10370542199191
ONEWEB-0415             
1 51624U 22012C   26091.11768149  .00001844  00000+0  52431-2 0  9993
2 51624  87.8812  51.6018 0002009  75.3774 284.7576 13.10384604199197
ONEWEB-0416             
1 51625U 22012D   26091.12929668 -.00000109  00000+0 -34935-3 0  9995
2 51625  87.8807  51.6198 0001891  67.6518 292.4810 13.10370744199231
ONEWEB-0422             
1 51626U 22012E   26091.07625671  .00000013  00000+0 -27918-6 0  9996
2 51626  87.9190  21.1657 0002389  89.0654 271.0751 13.17650670203657
ONEWEB-0423             
1 51627U 22012F   26090.31014910  .00000076  00000+0  16165-3 0  9998
2 51627  87.9189  21.3264 0001852  82.4013 277.7329 13.17649748203447
ONEWEB-0425             
1 51628U 22012G   26091.13924558 -.00000570  00000+0 -16703-2 0  9996
2 51628  87.8819  51.5970 0001545  84.7888 275.3415 13.10372117199237
ONEWEB-0428             
1 51629U 22012H   26091.11934243  .00000360  00000+0  99499-3 0  9996
2 51629  87.8809  51.6122 0001907  82.7711 277.3633 13.10371368199198
ONEWEB-0431             
1 51630U 22012J   26090.93660837  .00000089  00000+0  21900-3 0  9992
2 51630  87.8827  51.6359 0002465  73.3902 286.7496 13.10375133199229
ONEWEB-0434             
1 51631U 22012K   26091.14270019 -.00000622  00000+0 -18172-2 0  9997
2 51631  87.8814  51.6216 0001285  91.6384 268.4891 13.10373141199238
ONEWEB-0435             
1 51632U 22012L   26091.15088498 -.00000598  00000+0 -17495-2 0  9996
2 51632  87.8813  51.6103 0002167  85.4776 274.6598 13.10376946199227
