[{"OBJECT_NAME":"ONEWEB-0429","OBJECT_ID":"2021-132AH","EPOCH":"2026-04-01T04:08:04.020000","MEAN_MOTION":13.18686755,"ECCENTRICITY":0.0001875,"INCLINATION":87.9238,"RA_OF_ASC_NODE":350.769,"ARG_OF_PERICENTER":80.0679,"MEAN_ANOMALY":280.0664,"EPHEMERIS_TYPE":0,"CLASSIFICATION_TYPE":"U","NORAD_CAT_ID":50500,"ELEMENT_SET_NO":999,"REV_AT_EPOCH":21143,"BSTAR":-0.00033594,"MEAN_MOTION_DOT":-1.2e-06,"MEAN_MOTION_DDOT":0.0},{"OBJECT_NAME":"ONEWEB-0430","OBJECT_ID":"2021-132AJ","EPOCH":"2026-04-01T03:51:27.193824","MEAN_MOTION":13.18686286,"ECCENTRICITY":0.0001926,"INCLINATION":87.9235,"RA_OF_ASC_NODE":350.7693,"ARG_OF_PERICENTER":74.0091,"MEAN_ANOMALY":286.1253,"EPHEMERIS_TYPE":0,"CLASSIFICATION_TYPE":"U","NORAD_CAT_ID":50501,"ELEMENT_SET_NO":999,"REV_AT_EPOCH":21147,"BSTAR":8.0819e-05,"MEAN_MOTION_DOT":4.5e-07,"MEAN_MOTION_DDOT":0.0},{"OBJECT_NAME":"ONEWEB-0432","OBJECT_ID":"2021-132AK","EPOCH":"2026-04-01T04:40:15.508416","MEAN_MOTION":13.18647053,"ECCENTRICITY":0.0001593,"INCLINATION":87.9245,"RA_OF_ASC_NODE":350.7319,"ARG_OF_PERICENTER":54.7749,"MEAN_ANOMALY":305.3532,"EPHEMERIS_TYPE":0,"CLASSIFICATION_TYPE":"U","NORAD_CAT_ID":50502,"ELEMENT_SET_NO":999,"REV_AT_EPOCH":21143,"BSTAR":0.00025962,"MEAN_MOTION_DOT":1.15e-06,"MEAN_MOTION_DDOT":0.0},{"OBJECT_NAME":"ONEWEB-0440","OBJECT_ID":"2021-132AL","EPOCH":"2026-04-01T04:19:56.713728","MEAN_MOTION":13.18686343,"ECCENTRICITY":0.0001901,"INCLINATION":87.9246,"RA_OF_ASC_NODE":350.7556,"ARG_OF_PERICENTER":90.6815,"MEAN_ANOMALY":269.4535,"EPHEMERIS_TYPE":0,"CLASSIFICATION_TYPE":"U","NORAD_CAT_ID":50503,"ELEMENT_SET_NO":999,"REV_AT_EPOCH":21142,"BSTAR":-0.0005242700000000001,"MEAN_MOTION_DOT":-1.94e-06,"MEAN_MOTION_DDOT":0.0},{"OBJECT_NAME":"ONEWEB-0450","OBJECT_ID":"2021-132AM","EPOCH":"2026-04-01T04:10:38.522208","MEAN_MOTION":13.18685863,"ECCENTRICITY":0.0002027,"INCLINATION":87.9234,"RA_OF_ASC_NODE":350.77,"ARG_OF_PERICENTER":78.5367,"MEAN_ANOMALY":281.5993,"EPHEMERIS_TYPE":0,"CLASSIFICATION_TYPE":"U","NORAD_CAT_ID":50504,"ELEMENT_SET_NO":999,"REV_AT_EPOCH":21145,"BSTAR":-0.00036423,"MEAN_MOTION_DOT":-1.31e-06,"MEAN_MOTION_DDOT":0.0},{"OBJECT_NAME":"ONEWEB-0410","OBJECT_ID":"2022-012A","EPOCH":"2026-04-01T01:35:12.950304","MEAN_MOTION":13.17651333,"ECCENTRICITY":4.66e-05,"INCLINATION":87.9193,"RA_OF_ASC_NODE":21.1648,"ARG_OF_PERICENTER":67.1026,"MEAN_ANOMALY":293.0155,"EPHEMERIS_TYPE":0,"CLASSIFICATION_TYPE":"U","NORAD_CAT_ID":51622,"ELEMENT_SET_NO":999,"REV_AT_EPOCH":20354,"BSTAR":-9.833300000000001e-05,"MEAN_MOTION_DOT":-2.5e-07,"MEAN_MOTION_DDOT":0.0},{"OBJECT_NAME":"ONEWEB-0411","OBJECT_ID":"2022-012B","EPOCH":"2026-04-01T02:54:14.887296","MEAN_MOTION":13.10370542,"ECCENTRICITY":0.0002322,"INCLINATION":87.8815,"RA_OF_ASC_NODE":51.5986,"ARG_OF_PERICENTER":71.5276,"MEAN_ANOMALY":288.6104,"EPHEMERIS_TYPE":0,"CLASSIFICATION_TYPE":"U","NORAD_CAT_ID":51623,"ELEMENT_SET_NO":999,"REV_AT_EPOCH":19919,"BSTAR":0.0006845,"MEAN_MOTION_DOT":2.52e-06,"MEAN_MOTION_DDOT":0.0},{"OBJECT_NAME":"ONEWEB-0415","OBJECT_ID":"2022-012C","EPOCH":"2026-04-01T02:49:27.680736","MEAN_MOTION":13.10384604,"ECCENTRICITY":0.0002009,"INCLINATION":87.8812,"RA_OF_ASC_NODE":51.6018,"ARG_OF_PERICENTER":75.3774,"MEAN_ANOMALY":284.7576,"EPHEMERIS_TYPE":0,"CLASSIFICATION_TYPE":"U","NORAD_CAT_ID":51624,"ELEMENT_SET_NO":999,"REV_AT_EPOCH":19919,"BSTAR":0.0052431000000000005,"MEAN_MOTION_DOT":1.844e-05,"MEAN_MOTION_DDOT":0.0},{"OBJECT_NAME":"ONEWEB-0416","OBJECT_ID":"2022-012D","EPOCH":"2026-04-01T03:06:11.233152","MEAN_MOTION":13.10370744,"ECCENTRICITY":0.0001891,"INCLINATION":87.8807,"RA_OF_ASC_NODE":51.6198,"ARG_OF_PERICENTER":67.6518,"MEAN_ANOMALY":292.481,"EPHEMERIS_TYPE":0,"CLASSIFICATION_TYPE":"U","NORAD_CAT_ID":51625,"ELEMENT_SET_NO":999,"REV_AT_EPOCH":19923,"BSTAR":-0.00034935,"MEAN_MOTION_DOT":-1.09e-06,"MEAN_MOTION_DDOT":0.0},{"OBJECT_NAME":"ONEWEB-0422","OBJECT_ID":"2022-012E","EPOCH":"2026-04-01T01:49:48.579744","MEAN_MOTION":13.1765067,"ECCENTRICITY":0.0002389,"INCLINATION":87.919,"RA_OF_ASC_NODE":21.1657,"ARG_OF_PERICENTER":89.0654,"MEAN_ANOMALY":271.0751,"EPHEMERIS_TYPE":0,"CLASSIFICATION_TYPE":"U","NORAD_CAT_ID":51626,"ELEMENT_SET_NO":999,"REV_AT_EPOCH":20365,"BSTAR":-2.7918e-07,"MEAN_MOTION_DOT":1.3e-07,"MEAN_MOTION_DDOT":0.0},{"OBJECT_NAME":"ONEWEB-0423","OBJECT_ID":"2022-012F","EPOCH":"2026-03-31T07:26:36.882240","MEAN_MOTION":13.17649748,"ECCENTRICITY":0.0001852,"INCLINATION":87.9189,"RA_OF_ASC_NODE":21.3264,"ARG_OF_PERICENTER":82.4013,"MEAN_ANOMALY":277.7329,"EPHEMERIS_TYPE":0,"CLASSIFICATION_TYPE":"U","NORAD_CAT_ID":51627,"ELEMENT_SET_NO":999,"REV_AT_EPOCH":20344,"BSTAR":0.00016165,"MEAN_MOTION_DOT":7.6e-07,"MEAN_MOTION_DDOT":0.0},{"OBJECT_NAME":"ONEWEB-0425","OBJECT_ID":"2022-012G","EPOCH":"2026-04-01T03:20:30.818112","MEAN_MOTION":13.10372117,"ECCENTRICITY":0.0001545,"INCLINATION":87.8819,"RA_OF_ASC_NODE":51.597,"ARG_OF_PERICENTER":84.7888,"MEAN_ANOMALY":275.3415,"EPHEMERIS_TYPE":0,"CLASSIFICATION_TYPE":"U","NORAD_CAT_ID":51628,"ELEMENT_SET_NO":999,"REV_AT_EPOCH":19923,"BSTAR":-0.0016703000000000002,"MEAN_MOTION_DOT":-5.7e-06,"MEAN_MOTION_DDOT":0.0},{"OBJECT_NAME":"ONEWEB-0428","OBJECT_ID":"2022-012H","EPOCH":"2026-04-01T02:51:51.185952","MEAN_MOTION":13.10371368,"ECCENTRICITY":0.0001907,"INCLINATION":87.8809,"RA_OF_ASC_NODE":51.6122,"ARG_OF_PERICENTER":82.7711,"MEAN_ANOMALY":277.3633,"EPHEMERIS_TYPE":0,"CLASSIFICATION_TYPE":"U","NORAD_CAT_ID":51629,"ELEMENT_SET_NO":999,"REV_AT_EPOCH":19919,"BSTAR":0.00099499,"MEAN_MOTION_DOT":3.6e-06,"MEAN_MOTION_DDOT":0.0},{"OBJECT_NAME":"ONEWEB-0431","OBJECT_ID":"2022-012J","EPOCH":"2026-03-31T22:28:42.963168","MEAN_MOTION":13.10375133,"ECCENTRICITY":0.0002465,"INCLINATION":87.8827,"RA_OF_ASC_NODE":51.6359,"ARG_OF_PERICENTER":73.3902,"MEAN_ANOMALY":286.7496,"EPHEMERIS_TYPE":0,"CLASSIFICATION_TYPE":"U","NORAD_CAT_ID":51630,"ELEMENT_SET_NO":999,"REV_AT_EPOCH":19922,"BSTAR":0.000219,"MEAN_MOTION_DOT":8.9e-07,"MEAN_MOTION_DDOT":0.0},{"OBJECT_NAME":"ONEWEB-0434","OBJECT_ID":"2022-012K","EPOCH":"2026-04-01T03:25:29.296416","MEAN_MOTION":13.10373141,"ECCENTRICITY":0.0001285,"INCLINATION":87.8814,"RA_OF_ASC_NODE":51.6216,"ARG_OF_PERICENTER":91.6384,"MEAN_ANOMALY":268.4891,"EPHEMERIS_TYPE":0,"CLASSIFICATION_TYPE":"U","NORAD_CAT_ID":51631,"ELEMENT_SET_NO":999,"REV_AT_EPOCH":19923,"BSTAR":-0.0018172,"MEAN_MOTION_DOT":-6.22e-06,"MEAN_MOTION_DDOT":0.0},{"OBJECT_NAME":"ONEWEB-0435","OBJECT_ID":"2022-012L","EPOCH":"2026-04-01T03:37:16.462272","MEAN_MOTION":13.10376946,"ECCENTRICITY":0.0002167,"INCLINATION":87.8813,"RA_OF_ASC_NODE":51.6103,"ARG_OF_PERICENTER":85.4776,"MEAN_ANOMALY":274.6598,"EPHEMERIS_TYPE":0,"CLASSIFICATION_TYPE":"U","NORAD_CAT_ID":51632,"ELEMENT_SET_NO":999,"REV_AT_EPOCH":19922,"BSTAR":-0.0017495,"MEAN_MOTION_DOT":-5.98e-06,"MEAN_MOTION_DDOT":0.0}]